CCSDS_OMM_VERS = 2.0
CREATION_DATE  = 
ORIGINATOR     = 

OBJECT_NAME    = UNKNOWN
OBJECT_ID      = 
CENTER_NAME    = EARTH
REF_FRAME      = TEME
TIME_SYSTEM    = UTC
MEAN_ELEMENT_THEORY = SGP/SGP4

EPOCH          = 2026-02-22T21:00:31.904928
MEAN_MOTION    = 15.14156960
ECCENTRICITY   = .00008744
INCLINATION    = 98.6732
RA_OF_ASC_NODE = 82.4307
ARG_OF_PERICENTER = 183.8006
MEAN_ANOMALY   = 176.3216

EPHEMERIS_TYPE = 0
CLASSIFICATION_TYPE = U
NORAD_CAT_ID   = 270304
ELEMENT_SET_NO = 999
REV_AT_EPOCH   = 25910
BSTAR          = .66913522E-2
MEAN_MOTION_DOT = .123975E-2
MEAN_MOTION_DDOT = 0

CCSDS_OMM_VERS = 2.0
CREATION_DATE  = 
ORIGINATOR     = 

OBJECT_NAME    = UNKNOWN
OBJECT_ID      = 
CENTER_NAME    = EARTH
REF_FRAME      = TEME
TIME_SYSTEM    = UTC
MEAN_ELEMENT_THEORY = SGP/SGP4

EPOCH          = 2026-02-22T09:37:33.516768
MEAN_MOTION    = 14.37563580
ECCENTRICITY   = .00085066
INCLINATION    = 98.8240
RA_OF_ASC_NODE = 38.1559
ARG_OF_PERICENTER = 89.7485
MEAN_ANOMALY   = 270.4676

EPHEMERIS_TYPE = 0
CLASSIFICATION_TYPE = U
NORAD_CAT_ID   = 270305
ELEMENT_SET_NO = 999
REV_AT_EPOCH   = 25458
BSTAR          = .51969024E-3
MEAN_MOTION_DOT = .1512E-4
MEAN_MOTION_DDOT = 0

CCSDS_OMM_VERS = 2.0
CREATION_DATE  = 
ORIGINATOR     = 

OBJECT_NAME    = UNKNOWN
OBJECT_ID      = 
CENTER_NAME    = EARTH
REF_FRAME      = TEME
TIME_SYSTEM    = UTC
MEAN_ELEMENT_THEORY = SGP/SGP4

EPOCH          = 2026-02-05T04:13:51.286656
MEAN_MOTION    = 12.92697537
ECCENTRICITY   = .0027196
INCLINATION    = 90.2466
RA_OF_ASC_NODE = 4.0555
ARG_OF_PERICENTER = 277.4000
MEAN_ANOMALY   = 82.4028

EPHEMERIS_TYPE = 0
CLASSIFICATION_TYPE = U
NORAD_CAT_ID   = 270306
ELEMENT_SET_NO = 999
REV_AT_EPOCH   = 24756
BSTAR          = .20755046E-3
MEAN_MOTION_DOT = .63E-6
MEAN_MOTION_DDOT = 0

CCSDS_OMM_VERS = 2.0
CREATION_DATE  = 
ORIGINATOR     = 

OBJECT_NAME    = UNKNOWN
OBJECT_ID      = 
CENTER_NAME    = EARTH
REF_FRAME      = TEME
TIME_SYSTEM    = UTC
MEAN_ELEMENT_THEORY = SGP/SGP4

EPOCH          = 2026-02-05T15:38:15.878688
MEAN_MOTION    = 13.66536753
ECCENTRICITY   = .00759237
INCLINATION    = 82.6997
RA_OF_ASC_NODE = 178.2709
ARG_OF_PERICENTER = 141.5291
MEAN_ANOMALY   = 219.1308

EPHEMERIS_TYPE = 0
CLASSIFICATION_TYPE = U
NORAD_CAT_ID   = 270307
ELEMENT_SET_NO = 999
REV_AT_EPOCH   = 28440
BSTAR          = .18570288E-1
MEAN_MOTION_DOT = .15745E-3
MEAN_MOTION_DDOT = 0

CCSDS_OMM_VERS = 2.0
CREATION_DATE  = 
ORIGINATOR     = 

OBJECT_NAME    = UNKNOWN
OBJECT_ID      = 
CENTER_NAME    = EARTH
REF_FRAME      = TEME
TIME_SYSTEM    = UTC
MEAN_ELEMENT_THEORY = SGP/SGP4

EPOCH          = 2026-02-02T00:56:54.263616
MEAN_MOTION    = 12.99356395
ECCENTRICITY   = .02057301
INCLINATION    = 82.5719
RA_OF_ASC_NODE = 304.2564
ARG_OF_PERICENTER = 132.0305
MEAN_ANOMALY   = 229.8525

EPHEMERIS_TYPE = 0
CLASSIFICATION_TYPE = U
NORAD_CAT_ID   = 270308
ELEMENT_SET_NO = 999
REV_AT_EPOCH   = 27962
BSTAR          = .12444751E-1
MEAN_MOTION_DOT = .4107E-4
MEAN_MOTION_DDOT = 0

CCSDS_OMM_VERS = 2.0
CREATION_DATE  = 
ORIGINATOR     = 

OBJECT_NAME    = UNKNOWN
OBJECT_ID      = 
CENTER_NAME    = EARTH
REF_FRAME      = TEME
TIME_SYSTEM    = UTC
MEAN_ELEMENT_THEORY = SGP/SGP4

EPOCH          = 2026-02-22T22:09:24.818688
MEAN_MOTION    = 14.93836463
ECCENTRICITY   = .00379887
INCLINATION    = 98.3990
RA_OF_ASC_NODE = 41.0217
ARG_OF_PERICENTER = 74.8853
MEAN_ANOMALY   = 285.6563

EPHEMERIS_TYPE = 0
CLASSIFICATION_TYPE = U
NORAD_CAT_ID   = 270309
ELEMENT_SET_NO = 999
REV_AT_EPOCH   = 27861
BSTAR          = .63882793E-3
MEAN_MOTION_DOT = .6815E-4
MEAN_MOTION_DDOT = 0

CCSDS_OMM_VERS = 2.0
CREATION_DATE  = 
ORIGINATOR     = 

OBJECT_NAME    = UNKNOWN
OBJECT_ID      = 
CENTER_NAME    = EARTH
REF_FRAME      = TEME
TIME_SYSTEM    = UTC
MEAN_ELEMENT_THEORY = SGP/SGP4

EPOCH          = 2026-02-23T10:36:10.419264
MEAN_MOTION    = 14.52541371
ECCENTRICITY   = .00202208
INCLINATION    = 98.8065
RA_OF_ASC_NODE = 48.0943
ARG_OF_PERICENTER = 317.4139
MEAN_ANOMALY   = 42.5486

EPHEMERIS_TYPE = 0
CLASSIFICATION_TYPE = U
NORAD_CAT_ID   = 270311
ELEMENT_SET_NO = 999
REV_AT_EPOCH   = 25651
BSTAR          = .25429616E-2
MEAN_MOTION_DOT = .10383E-3
MEAN_MOTION_DDOT = 0

CCSDS_OMM_VERS = 2.0
CREATION_DATE  = 
ORIGINATOR     = 

OBJECT_NAME    = UNKNOWN
OBJECT_ID      = 
CENTER_NAME    = EARTH
REF_FRAME      = TEME
TIME_SYSTEM    = UTC
MEAN_ELEMENT_THEORY = SGP/SGP4

EPOCH          = 2026-02-01T18:19:01.081344
MEAN_MOTION    = 14.18302001
ECCENTRICITY   = .00293501
INCLINATION    = 98.4503
RA_OF_ASC_NODE = 36.9466
ARG_OF_PERICENTER = 348.6006
MEAN_ANOMALY   = 11.4503

EPHEMERIS_TYPE = 0
CLASSIFICATION_TYPE = U
NORAD_CAT_ID   = 270312
ELEMENT_SET_NO = 999
REV_AT_EPOCH   = 31987
BSTAR          = .31829367E-3
MEAN_MOTION_DOT = .617E-5
MEAN_MOTION_DDOT = 0

CCSDS_OMM_VERS = 2.0
CREATION_DATE  = 
ORIGINATOR     = 

OBJECT_NAME    = UNKNOWN
OBJECT_ID      = 
CENTER_NAME    = EARTH
REF_FRAME      = TEME
TIME_SYSTEM    = UTC
MEAN_ELEMENT_THEORY = SGP/SGP4

EPOCH          = 2026-02-03T16:03:28.152576
MEAN_MOTION    = 12.95208727
ECCENTRICITY   = .00253657
INCLINATION    = 90.2487
RA_OF_ASC_NODE = 8.1726
ARG_OF_PERICENTER = 193.4386
MEAN_ANOMALY   = 166.6061

EPHEMERIS_TYPE = 0
CLASSIFICATION_TYPE = U
NORAD_CAT_ID   = 270313
ELEMENT_SET_NO = 999
REV_AT_EPOCH   = 28778
BSTAR          = .1416025E-2
MEAN_MOTION_DOT = .406E-5
MEAN_MOTION_DDOT = 0

CCSDS_OMM_VERS = 2.0
CREATION_DATE  = 
ORIGINATOR     = 

OBJECT_NAME    = UNKNOWN
OBJECT_ID      = 
CENTER_NAME    = EARTH
REF_FRAME      = TEME
TIME_SYSTEM    = UTC
MEAN_ELEMENT_THEORY = SGP/SGP4

EPOCH          = 2026-02-22T19:54:51.339168
MEAN_MOTION    = 12.94773696
ECCENTRICITY   = .00243463
INCLINATION    = 90.2505
RA_OF_ASC_NODE = 4.4569
ARG_OF_PERICENTER = 205.1710
MEAN_ANOMALY   = 154.8225

EPHEMERIS_TYPE = 0
CLASSIFICATION_TYPE = U
NORAD_CAT_ID   = 270314
ELEMENT_SET_NO = 999
REV_AT_EPOCH   = 27782
BSTAR          = .15755041E-2
MEAN_MOTION_DOT = .448E-5
MEAN_MOTION_DDOT = 0

CCSDS_OMM_VERS = 2.0
CREATION_DATE  = 
ORIGINATOR     = 

OBJECT_NAME    = UNKNOWN
OBJECT_ID      = 
CENTER_NAME    = EARTH
REF_FRAME      = TEME
TIME_SYSTEM    = UTC
MEAN_ELEMENT_THEORY = SGP/SGP4

EPOCH          = 2026-02-19T20:35:11.207040
MEAN_MOTION    = 14.11160592
ECCENTRICITY   = .02698824
INCLINATION    = 97.6666
RA_OF_ASC_NODE = 281.0029
ARG_OF_PERICENTER = 171.6768
MEAN_ANOMALY   = 188.9020

EPHEMERIS_TYPE = 0
CLASSIFICATION_TYPE = U
NORAD_CAT_ID   = 270315
ELEMENT_SET_NO = 999
REV_AT_EPOCH   = 29367
BSTAR          = .1070258E-2
MEAN_MOTION_DOT = .268E-4
MEAN_MOTION_DDOT = 0

CCSDS_OMM_VERS = 2.0
CREATION_DATE  = 
ORIGINATOR     = 

OBJECT_NAME    = UNKNOWN
OBJECT_ID      = 
CENTER_NAME    = EARTH
REF_FRAME      = TEME
TIME_SYSTEM    = UTC
MEAN_ELEMENT_THEORY = SGP/SGP4

EPOCH          = 2026-02-18T01:33:36.309312
MEAN_MOTION    = 14.21092525
ECCENTRICITY   = .00076122
INCLINATION    = 81.2108
RA_OF_ASC_NODE = 329.9319
ARG_OF_PERICENTER = 71.6069
MEAN_ANOMALY   = 288.5935

EPHEMERIS_TYPE = 0
CLASSIFICATION_TYPE = U
NORAD_CAT_ID   = 270316
ELEMENT_SET_NO = 999
REV_AT_EPOCH   = 27366
BSTAR          = .13849848E-2
MEAN_MOTION_DOT = .3019E-4
MEAN_MOTION_DDOT = 0

CCSDS_OMM_VERS = 2.0
CREATION_DATE  = 
ORIGINATOR     = 

OBJECT_NAME    = UNKNOWN
OBJECT_ID      = 
CENTER_NAME    = EARTH
REF_FRAME      = TEME
TIME_SYSTEM    = UTC
MEAN_ELEMENT_THEORY = SGP/SGP4

EPOCH          = 2026-02-06T08:32:16.123488
MEAN_MOTION    = 12.93345053
ECCENTRICITY   = .00219492
INCLINATION    = 90.2462
RA_OF_ASC_NODE = 4.4266
ARG_OF_PERICENTER = 247.6422
MEAN_ANOMALY   = 112.2370

EPHEMERIS_TYPE = 0
CLASSIFICATION_TYPE = U
NORAD_CAT_ID   = 270317
ELEMENT_SET_NO = 999
REV_AT_EPOCH   = 7788
BSTAR          = .12670191E-2
MEAN_MOTION_DOT = .354E-5
MEAN_MOTION_DDOT = 0

CCSDS_OMM_VERS = 2.0
CREATION_DATE  = 
ORIGINATOR     = 

OBJECT_NAME    = UNKNOWN
OBJECT_ID      = 
CENTER_NAME    = EARTH
REF_FRAME      = TEME
TIME_SYSTEM    = UTC
MEAN_ELEMENT_THEORY = SGP/SGP4

EPOCH          = 2026-01-30T16:55:58.687968
MEAN_MOTION    = 12.53138267
ECCENTRICITY   = .05322577
INCLINATION    = 102.9925
RA_OF_ASC_NODE = 183.7767
ARG_OF_PERICENTER = 229.8458
MEAN_ANOMALY   = 125.4830

EPHEMERIS_TYPE = 0
CLASSIFICATION_TYPE = U
NORAD_CAT_ID   = 270319
ELEMENT_SET_NO = 999
REV_AT_EPOCH   = 6846
BSTAR          = .25255133E-1
MEAN_MOTION_DOT = .6708E-4
MEAN_MOTION_DDOT = 0

CCSDS_OMM_VERS = 2.0
CREATION_DATE  = 
ORIGINATOR     = 

OBJECT_NAME    = UNKNOWN
OBJECT_ID      = 
CENTER_NAME    = EARTH
REF_FRAME      = TEME
TIME_SYSTEM    = UTC
MEAN_ELEMENT_THEORY = SGP/SGP4

EPOCH          = 2026-02-03T15:19:48.430272
MEAN_MOTION    = 12.99500716
ECCENTRICITY   = .00261978
INCLINATION    = 90.2420
RA_OF_ASC_NODE = 2.3204
ARG_OF_PERICENTER = 322.7294
MEAN_ANOMALY   = 37.2009

EPHEMERIS_TYPE = 0
CLASSIFICATION_TYPE = U
NORAD_CAT_ID   = 270320
ELEMENT_SET_NO = 999
REV_AT_EPOCH   = 22728
BSTAR          = .38176525E-4
MEAN_MOTION_DOT = .19E-6
MEAN_MOTION_DDOT = 0

CCSDS_OMM_VERS = 2.0
CREATION_DATE  = 
ORIGINATOR     = 

OBJECT_NAME    = UNKNOWN
OBJECT_ID      = 
CENTER_NAME    = EARTH
REF_FRAME      = TEME
TIME_SYSTEM    = UTC
MEAN_ELEMENT_THEORY = SGP/SGP4

EPOCH          = 2026-02-15T08:01:38.826624
MEAN_MOTION    = 12.92673840
ECCENTRICITY   = .00280104
INCLINATION    = 90.2482
RA_OF_ASC_NODE = 4.0471
ARG_OF_PERICENTER = 244.3095
MEAN_ANOMALY   = 115.5130

EPHEMERIS_TYPE = 0
CLASSIFICATION_TYPE = U
NORAD_CAT_ID   = 270321
ELEMENT_SET_NO = 999
REV_AT_EPOCH   = 25030
BSTAR          = .83531497E-3
MEAN_MOTION_DOT = .234E-5
MEAN_MOTION_DDOT = 0

